NORAD_CAT_ID,OBJECT_NAME,OBJECT_TYPE,EPOCH,MEAN_MOTION,ECCENTRICITY,INCLINATION,RA_OF_ASC_NODE,ARG_OF_PERICENTER,MEAN_ANOMALY,BSTAR,MEAN_MOTION_DOT,MEAN_MOTION_DDOT,TLE_LINE0,TLE_LINE1,TLE_LINE2,SEMIMAJOR_AXIS,PERIOD,APOGEE,PERIGEE,DECAYED
55914.0,STARLINK-5856,PAYLOAD,2023-05-13 22:00:00,15.15262556,0.0003168,70.0016,23.911,274.8114,116.6011,-0.051639,-0.00902856,0.0,0 STARLINK-5856,1 55914U 23037A   23133.91667824 -.00902856  00000-0 -51639-1 0  9991,2 55914  70.0016  23.9110 0003168 274.8114 116.6011 15.15262556  1309,6898.319,95.033,522.369,517.998,0.0
55914.0,STARLINK-5856,PAYLOAD,2023-05-14 08:00:01,15.14475705,0.0002967,70.0014,22.8331,276.5056,226.6023,-0.055639,-0.00947679,0.0,0 STARLINK-5856,1 55914U 23037A   23134.33335648 -.00947679  00000-0 -55639-1 0  9990,2 55914  70.0014  22.8331 0002967 276.5056 226.6023 15.14475705  9472,6900.708,95.082,524.62,520.525,0.0
55914.0,STARLINK-5856,PAYLOAD,2023-05-14 14:00:01,15.13964523,0.0003123,70.0017,22.1872,271.9106,153.5353,-0.052702,-0.00889196,0.0,0 STARLINK-5856,1 55914U 23037A   23134.58334491 -.00889196  00000-0 -52702-1 0  9999,2 55914  70.0017  22.1872 0003123 271.9106 153.5353 15.13964523  1306,6902.261,95.115,526.282,521.97,0.0
55914.0,STARLINK-5856,PAYLOAD,2023-05-14 22:00:00,15.13303207,0.0003106,70.0019,21.3267,275.9703,165.3373,-0.054301,-0.00898548,0.0,0 STARLINK-5856,1 55914U 23037A   23134.91667824 -.00898548  00000-0 -54301-1 0  9993,2 55914  70.0019  21.3267 0003106 275.9703 165.3373 15.13303207  1304,6904.272,95.156,528.281,523.992,0.0
55914.0,STARLINK-5856,PAYLOAD,2023-05-15 02:00:01,15.12982428,0.0002998,70.0019,20.8967,273.7576,355.1721,-0.054311,-0.00891187,0.0,0 STARLINK-5856,1 55914U 23037A   23135.08334491 -.00891187  00000-0 -54311-1 0  9996,2 55914  70.0019  20.8967 0002998 273.7576 355.1721 15.12982428  9599,6905.248,95.176,529.183,525.042,0.0
55914.0,STARLINK-5856,PAYLOAD,2023-05-15 14:00:01,15.12012497,0.0003023,70.002,19.6082,267.0223,203.6228,-0.056214,-0.00897243,0.0,0 STARLINK-5856,1 55914U 23037A   23135.58334491 -.00897243  00000-0 -56214-1 0  9994,2 55914  70.0020  19.6082 0003023 267.0223 203.6228 15.12012497  1300,6908.2,95.237,532.154,527.977,0.0
55914.0,STARLINK-5856,PAYLOAD,2023-05-15 16:00:00,15.11883204,0.0002988,70.0021,19.3937,263.7715,300.3124,-0.060403,-0.00955844,0.0,0 STARLINK-5856,1 55914U 23037A   23135.66667824 -.00955844  00000-0 -60403-1 0  9999,2 55914  70.0021  19.3937 0002988 263.7715 300.3124 15.11883204  9685,6908.594,95.245,532.523,528.395,0.0
55914.0,STARLINK-5856,PAYLOAD,2023-05-15 22:00:00,15.11343309,0.0003006,70.002,18.7504,271.1253,213.0367,-0.057001,-0.00893288,0.0,0 STARLINK-5856,1 55914U 23037A   23135.91667824 -.00893288  00000-0 -57001-1 0  9990,2 55914  70.0020  18.7504 0003006 271.1253 213.0367 15.11343309  1306,6910.239,95.279,534.182,530.027,0.0
55914.0,STARLINK-5856,PAYLOAD,2023-05-16 14:00:01,15.10062624,0.0002988,70.002,17.0371,266.2602,242.6066,-0.060184,-0.00909037,0.0,0 STARLINK-5856,1 55914U 23037A   23136.58335648 -.00909037  00000-0 -60184-1 0  9996,2 55914  70.0020  17.0371 0002988 266.2602 242.6066 15.10062624  9827,6914.146,95.36,538.077,533.945,0.0
55914.0,STARLINK-5856,PAYLOAD,2023-05-16 22:00:00,15.09382193,0.0002967,70.0019,16.1818,271.0029,248.9739,-0.059615,-0.00885475,0.0,0 STARLINK-5856,1 55914U 23037A   23136.91667824 -.00885475  00000-0 -59615-1 0  9993,2 55914  70.0019  16.1818 0002967 271.0029 248.9739 15.09382193  1300,6916.224,95.403,540.141,536.037,0.0
55914.0,STARLINK-5856,PAYLOAD,2023-05-17 06:00:00,15.08779274,0.0002881,70.0016,15.3272,271.7626,258.5669,-0.066303,-0.00962255,0.0,0 STARLINK-5856,1 55914U 23037A   23137.25001157 -.00962255  00000-0 -66303-1 0  9996,2 55914  70.0016  15.3272 0002881 271.7626 258.5669 15.08779274  9921,6918.066,95.441,541.924,537.938,0.0
55914.0,STARLINK-5856,PAYLOAD,2023-05-17 22:00:00,15.0742235,0.0002947,70.0017,13.6209,271.0768,277.6732,-0.06246,-0.00879676,0.0,0 STARLINK-5856,1 55914U 23037A   23137.91667824 -.00879676  00000-0 -62460-1 0  9992,2 55914  70.0017  13.6209 0002947 271.0768 277.6732 15.07422350 10021,6922.217,95.527,546.122,542.042,0.0
55914.0,STARLINK-5856,PAYLOAD,2023-05-18 14:00:01,15.06157395,0.0002957,70.0015,11.9181,264.8889,299.11,-0.068094,-0.00923173,0.0,0 STARLINK-5856,1 55914U 23037A   23138.58334491 -.00923173  00000-0 -68094-1 0  9998,2 55914  70.0015  11.9181 0002957 264.8889 299.1100 15.06157395 10126,6926.092,95.608,550.005,545.909,0.0
55914.0,STARLINK-5856,PAYLOAD,2023-05-18 22:00:00,15.05463453,0.0002959,70.0014,11.0677,271.2348,299.2478,-0.065477,-0.00874837,0.0,0 STARLINK-5856,1 55914U 23037A   23138.91667824 -.00874837  00000-0 -65477-1 0  9998,2 55914  70.0014  11.0677 0002959 271.2348 299.2478 15.05463453  1303,6928.22,95.652,552.135,548.035,0.0
55914.0,STARLINK-5856,PAYLOAD,2023-05-19 14:00:01,15.04203642,0.0002961,70.001,9.37,264.6738,316.3624,-0.072193,-0.00928156,0.0,0 STARLINK-5856,1 55914U 23037A   23139.58334491 -.00928156  00000-0 -72193-1 0  9990,2 55914  70.0010   9.3700 0002961 264.6738 316.3624 15.04203642 10279,6932.088,95.732,556.006,551.901,0.0
55914.0,STARLINK-5856,PAYLOAD,2023-05-19 19:24:53,15.0564354,0.0004339,69.9994,8.7981,269.152,90.9145,-0.014699,-0.00206732,0.0,0 STARLINK-5856,1 55914U 23037A   23139.80895832 -.00206732  00000-0 -14699-1 0  9992,2 55914  69.9994   8.7981 0004339 269.1520  90.9145 15.05643540 10652,6927.668,95.64,552.539,546.527,0.0
55914.0,STARLINK-5856,PAYLOAD,2023-05-20 14:00:01,15.02250224,0.0002993,70.0007,6.8291,264.3819,326.6522,-0.076553,-0.00933785,0.0,0 STARLINK-5856,1 55914U 23037A   23140.58334491 -.00933785  00000-0 -76553-1 0  9990,2 55914  70.0007   6.8291 0002993 264.3819 326.6522 15.02250224 10428,6938.096,95.856,562.038,557.885,0.0
55914.0,STARLINK-5856,PAYLOAD,2023-05-20 20:58:52,15.03341696,0.0004925,69.9997,6.0983,276.8936,83.1665,-0.018671,-0.00245585,0.0,0 STARLINK-5856,1 55914U 23037A   23140.87421352 -.00245585  00000-0 -18671-1 0  9996,2 55914  69.9997   6.0983 0004925 276.8936  83.1665 15.03341696 10819,6934.738,95.787,560.018,553.187,0.0
55914.0,STARLINK-5856,PAYLOAD,2023-05-21 14:00:01,15.0029425,0.0003032,70.0005,4.2959,263.4495,330.5406,-0.08075,-0.00946006,0.0,0 STARLINK-5856,1 55914U 23037A   23141.58334491 -.00946006  00000-0 -80750-1 0  9995,2 55914  70.0005   4.2959 0003032 263.4495 330.5406 15.00294250  1301,6944.125,95.981,568.096,563.885,0.0
55914.0,STARLINK-5856,PAYLOAD,2023-05-21 20:58:39,15.01286505,0.0002907,70.0,3.5671,266.625,93.4578,-0.018438,-0.00230124,0.0,0 STARLINK-5856,1 55914U 23037A   23141.87406555 -.00230124  00000-0 -18438-1 0  9999,2 55914  70.0000   3.5671 0002907 266.6250  93.4578 15.01286505 10965,6941.065,95.918,564.948,560.912,0.0
55914.0,STARLINK-5856,PAYLOAD,2023-05-21 22:00:00,14.99420562,0.0003136,70.0005,3.453,271.4818,321.9785,-0.015255,-0.00182558,0.0,0 STARLINK-5856,1 55914U 23037A   23141.91667824 -.00182558  00000-0 -15255-1 0  9993,2 55914  70.0005   3.4530 0003136 271.4818 321.9785 14.99420562 10623,6946.822,96.037,570.866,566.509,0.0
55914.0,STARLINK-5856,PAYLOAD,2023-05-22 06:00:02,14.99321457,0.0003152,70.0002,2.611,269.9121,322.3138,-0.004359,-0.00053059,0.0,0 STARLINK-5856,1 55914U 23037A   23142.25002315 -.00053059  00000-0 -43590-2 0  9996,2 55914  70.0002   2.6110 0003152 269.9121 322.3138 14.99321457 10677,6947.129,96.043,571.183,566.804,0.0
55914.0,STARLINK-5856,PAYLOAD,2023-05-22 14:00:01,14.9929342,0.000318,70.0005,1.7695,264.2666,326.5433,0.0020114,0.000246,0.0,0 STARLINK-5856,1 55914U 23037A   23142.58334491  .00024600  00000-0  20114-2 0  9990,2 55914  70.0005   1.7695 0003180 264.2666 326.5433 14.99293420  1303,6947.215,96.045,571.289,566.871,0.0
55914.0,STARLINK-5856,PAYLOAD,2023-05-22 22:00:00,14.99299449,0.0003243,70.0005,0.9273,270.8,318.6685,-0.00081809,-0.00010089,0.0,0 STARLINK-5856,1 55914U 23037A   23142.91667824 -.00010089  00000-0 -81809-3 0  9993,2 55914  70.0005   0.9273 0003243 270.8000 318.6685 14.99299449 10770,6947.197,96.045,571.315,566.809,0.0
55914.0,STARLINK-5856,PAYLOAD,2023-05-23 22:00:00,14.9929601,0.0003294,70.0006,358.4017,271.9915,313.4098,0.00025133,2.982e-05,0.0,0 STARLINK-5856,1 55914U 23037A   23143.91667824  .00002982  00000-0  25133-3 0  9993,2 55914  70.0006 358.4017 0003294 271.9915 313.4098 14.99296010 10920,6947.207,96.045,571.361,566.784,0.0
55914.0,STARLINK-5856,PAYLOAD,2023-05-24 14:00:01,14.99286883,0.0003333,70.0009,356.7182,265.9416,316.7643,0.0014637,0.00017855,0.0,0 STARLINK-5856,1 55914U 23037A   23144.58335648  .00017855  00000-0  14637-2 0  9994,2 55914  70.0009 356.7182 0003333 265.9416 316.7643 14.99286883 11021,6947.235,96.046,571.416,566.785,0.0
55914.0,STARLINK-5856,PAYLOAD,2023-05-24 22:00:00,14.99276126,0.000333,70.0007,355.8764,271.9719,309.3176,0.0024349,0.00029808,0.0,0 STARLINK-5856,1 55914U 23037A   23144.91667824  .00029808  00000-0  24349-2 0  9997,2 55914  70.0007 355.8764 0003330 271.9719 309.3176 14.99276126  1303,6947.269,96.046,571.447,566.82,0.0
55914.0,STARLINK-5856,PAYLOAD,2023-05-25 14:00:01,14.99307343,0.0003294,70.001,354.1931,266.095,312.4638,0.00099721,0.00012131,0.0,0 STARLINK-5856,1 55914U 23037A   23145.58334491  .00012131  00000-0  99721-3 0  9990,2 55914  70.0010 354.1931 0003294 266.0950 312.4638 14.99307343 11176,6947.172,96.044,571.326,566.749,0.0
55914.0,STARLINK-5856,PAYLOAD,2023-05-26 00:00:02,14.99292654,0.0003278,70.0009,353.1408,273.1612,33.7903,0.0035717,0.00043875,0.0,0 STARLINK-5856,1 55914U 23037A   23146.00002315  .00043875  00000-0  35717-2 0  9998,2 55914  70.0009 353.1408 0003278 273.1612  33.7903 14.99292654  1308,6947.218,96.045,571.36,566.805,0.0
55914.0,STARLINK-5856,PAYLOAD,2023-05-26 00:14:12,14.99299241,0.000319,69.9989,353.1171,266.8871,93.1923,6.5256e-05,7.05e-06,0.0,0 STARLINK-5856,1 55914U 23037A   23146.00986570  .00000705  00000-0  65256-4 0  9990,2 55914  69.9989 353.1171 0003190 266.8871  93.1923 14.99299241 11580,6947.197,96.045,571.278,566.846,0.0
